[{"OBJECT_NAME":"SL-8 R/B","OBJECT_ID":"1988-053B","EPOCH":"2026-04-23T05:44:57.734304","MEAN_MOTION":14.38940583,"ECCENTRICITY":0.00207098,"INCLINATION":74.0495,"RA_OF_ASC_NODE":30.3445,"ARG_OF_PERICENTER":202.6801,"MEAN_ANOMALY":312.1005,"EPHEMERIS_TYPE":0,"CLASSIFICATION_TYPE":"U","NORAD_CAT_ID":19257,"ELEMENT_SET_NO":999,"REV_AT_EPOCH":98300,"BSTAR":5.4937364e-5,"MEAN_MOTION_DOT":1.43e-6,"MEAN_MOTION_DDOT":0},{"OBJECT_NAME":"COSMOS 1975","OBJECT_ID":"1988-093A","EPOCH":"2026-04-22T20:27:37.018656","MEAN_MOTION":15.28609348,"ECCENTRICITY":0.00121,"INCLINATION":82.5187,"RA_OF_ASC_NODE":73.3216,"ARG_OF_PERICENTER":25.1621,"MEAN_ANOMALY":335.0205,"EPHEMERIS_TYPE":0,"CLASSIFICATION_TYPE":"U","NORAD_CAT_ID":19573,"ELEMENT_SET_NO":999,"REV_AT_EPOCH":2615,"BSTAR":0.00015841,"MEAN_MOTION_DOT":4.449e-5,"MEAN_MOTION_DDOT":0},{"OBJECT_NAME":"SL-14 R/B","OBJECT_ID":"1988-093B","EPOCH":"2026-04-23T03:08:19.556160","MEAN_MOTION":14.85701349,"ECCENTRICITY":0.00191517,"INCLINATION":82.5336,"RA_OF_ASC_NODE":0.3367,"ARG_OF_PERICENTER":249.7437,"MEAN_ANOMALY":262.2081,"EPHEMERIS_TYPE":0,"CLASSIFICATION_TYPE":"U","NORAD_CAT_ID":19574,"ELEMENT_SET_NO":999,"REV_AT_EPOCH":761,"BSTAR":2.9252285e-5,"MEAN_MOTION_DOT":2.79e-6,"MEAN_MOTION_DDOT":0},{"OBJECT_NAME":"SL-16 R/B","OBJECT_ID":"1988-102B","EPOCH":"2026-04-23T06:19:28.718976","MEAN_MOTION":14.16157712,"ECCENTRICITY":0.00162456,"INCLINATION":70.9999,"RA_OF_ASC_NODE":57.7048,"ARG_OF_PERICENTER":298.2357,"MEAN_ANOMALY":61.7125,"EPHEMERIS_TYPE":0,"CLASSIFICATION_TYPE":"U","NORAD_CAT_ID":19650,"ELEMENT_SET_NO":999,"REV_AT_EPOCH":93320,"BSTAR":-7.3331647e-5,"MEAN_MOTION_DOT":-1.93e-6,"MEAN_MOTION_DDOT":0},{"OBJECT_NAME":"INTERCOSMOS 24","OBJECT_ID":"1989-080A","EPOCH":"2026-04-23T06:52:40.179360","MEAN_MOTION":12.59599807,"ECCENTRICITY":0.1187466,"INCLINATION":82.6035,"RA_OF_ASC_NODE":75.3583,"ARG_OF_PERICENTER":189.2507,"MEAN_ANOMALY":168.4845,"EPHEMERIS_TYPE":0,"CLASSIFICATION_TYPE":"U","NORAD_CAT_ID":20261,"ELEMENT_SET_NO":999,"REV_AT_EPOCH":67241,"BSTAR":3.9549414e-5,"MEAN_MOTION_DOT":1.51e-6,"MEAN_MOTION_DDOT":0},{"OBJECT_NAME":"SL-14 R/B","OBJECT_ID":"1989-080C","EPOCH":"2026-04-23T02:57:52.014816","MEAN_MOTION":12.50527488,"ECCENTRICITY":0.12309951,"INCLINATION":82.5913,"RA_OF_ASC_NODE":144.6718,"ARG_OF_PERICENTER":83.2409,"MEAN_ANOMALY":290.6889,"EPHEMERIS_TYPE":0,"CLASSIFICATION_TYPE":"U","NORAD_CAT_ID":20262,"ELEMENT_SET_NO":999,"REV_AT_EPOCH":66570,"BSTAR":6.2792637e-5,"MEAN_MOTION_DOT":2.41e-6,"MEAN_MOTION_DDOT":0},{"OBJECT_NAME":"DELTA 1 R/B","OBJECT_ID":"1989-089B","EPOCH":"2026-04-23T02:37:37.090848","MEAN_MOTION":14.50695361,"ECCENTRICITY":0.0068559,"INCLINATION":97.0667,"RA_OF_ASC_NODE":313.4708,"ARG_OF_PERICENTER":343.4519,"MEAN_ANOMALY":16.4441,"EPHEMERIS_TYPE":0,"CLASSIFICATION_TYPE":"U","NORAD_CAT_ID":20323,"ELEMENT_SET_NO":999,"REV_AT_EPOCH":90217,"BSTAR":4.7278389e-5,"MEAN_MOTION_DOT":1.55e-6,"MEAN_MOTION_DDOT":0},{"OBJECT_NAME":"ARIANE 40 R/B","OBJECT_ID":"1990-005H","EPOCH":"2026-04-23T01:53:37.224384","MEAN_MOTION":14.39897414,"ECCENTRICITY":0.00113004,"INCLINATION":98.3002,"RA_OF_ASC_NODE":172.398,"ARG_OF_PERICENTER":74.4464,"MEAN_ANOMALY":285.7971,"EPHEMERIS_TYPE":0,"CLASSIFICATION_TYPE":"U","NORAD_CAT_ID":20443,"ELEMENT_SET_NO":999,"REV_AT_EPOCH":89919,"BSTAR":6.1760787e-5,"MEAN_MOTION_DOT":1.52e-6,"MEAN_MOTION_DDOT":0},{"OBJECT_NAME":"DELTA 2 R/B(1)","OBJECT_ID":"1990-008B","EPOCH":"2026-04-23T01:46:52.506912","MEAN_MOTION":15.61641706,"ECCENTRICITY":0.00749843,"INCLINATION":35.6015,"RA_OF_ASC_NODE":242.2605,"ARG_OF_PERICENTER":315.3394,"MEAN_ANOMALY":44.1321,"EPHEMERIS_TYPE":0,"CLASSIFICATION_TYPE":"U","NORAD_CAT_ID":20453,"ELEMENT_SET_NO":999,"REV_AT_EPOCH":93306,"BSTAR":0.00043345406,"MEAN_MOTION_DOT":0.00044681,"MEAN_MOTION_DDOT":0},{"OBJECT_NAME":"COSMOS 2058","OBJECT_ID":"1990-010A","EPOCH":"2026-04-23T03:13:54.217920","MEAN_MOTION":15.11683886,"ECCENTRICITY":0.00094499,"INCLINATION":82.4698,"RA_OF_ASC_NODE":3.6392,"ARG_OF_PERICENTER":170.2931,"MEAN_ANOMALY":189.8484,"EPHEMERIS_TYPE":0,"CLASSIFICATION_TYPE":"U","NORAD_CAT_ID":20465,"ELEMENT_SET_NO":999,"REV_AT_EPOCH":94895,"BSTAR":0.00011422062,"MEAN_MOTION_DOT":1.974e-5,"MEAN_MOTION_DDOT":0},{"OBJECT_NAME":"SL-14 R/B","OBJECT_ID":"1990-010B","EPOCH":"2026-04-23T06:26:41.614944","MEAN_MOTION":14.83609768,"ECCENTRICITY":0.00206135,"INCLINATION":82.5038,"RA_OF_ASC_NODE":225.5118,"ARG_OF_PERICENTER":149.3779,"MEAN_ANOMALY":210.8644,"EPHEMERIS_TYPE":0,"CLASSIFICATION_TYPE":"U","NORAD_CAT_ID":20466,"ELEMENT_SET_NO":999,"REV_AT_EPOCH":93509,"BSTAR":3.7939927e-5,"MEAN_MOTION_DOT":3.38e-6,"MEAN_MOTION_DDOT":0},{"OBJECT_NAME":"SL-14 R/B","OBJECT_ID":"1990-018B","EPOCH":"2026-04-23T04:39:25.820640","MEAN_MOTION":14.82182979,"ECCENTRICITY":0.00149604,"INCLINATION":82.5236,"RA_OF_ASC_NODE":181.5064,"ARG_OF_PERICENTER":308.6592,"MEAN_ANOMALY":51.3283,"EPHEMERIS_TYPE":0,"CLASSIFICATION_TYPE":"U","NORAD_CAT_ID":20511,"ELEMENT_SET_NO":999,"REV_AT_EPOCH":92917,"BSTAR":2.7973252e-5,"MEAN_MOTION_DOT":2.46e-6,"MEAN_MOTION_DDOT":0},{"OBJECT_NAME":"HST","OBJECT_ID":"1990-037B","EPOCH":"2026-04-23T07:15:35.997408","MEAN_MOTION":15.30116735,"ECCENTRICITY":0.00017194,"INCLINATION":28.4741,"RA_OF_ASC_NODE":95.5035,"ARG_OF_PERICENTER":251.1381,"MEAN_ANOMALY":108.9029,"EPHEMERIS_TYPE":0,"CLASSIFICATION_TYPE":"U","NORAD_CAT_ID":20580,"ELEMENT_SET_NO":999,"REV_AT_EPOCH":78015,"BSTAR":0.00014894091,"MEAN_MOTION_DOT":4.696e-5,"MEAN_MOTION_DDOT":0},{"OBJECT_NAME":"SL-16 R/B","OBJECT_ID":"1990-046B","EPOCH":"2026-04-23T05:35:27.928032","MEAN_MOTION":14.15014872,"ECCENTRICITY":0.00161709,"INCLINATION":70.9992,"RA_OF_ASC_NODE":204.3614,"ARG_OF_PERICENTER":240.7009,"MEAN_ANOMALY":119.2498,"EPHEMERIS_TYPE":0,"CLASSIFICATION_TYPE":"U","NORAD_CAT_ID":20625,"ELEMENT_SET_NO":999,"REV_AT_EPOCH":85469,"BSTAR":5.498512e-6,"MEAN_MOTION_DOT":-3.7e-7,"MEAN_MOTION_DDOT":0},{"OBJECT_NAME":"COSMOS 2084","OBJECT_ID":"1990-055A","EPOCH":"2026-04-23T05:10:45.548544","MEAN_MOTION":15.05891404,"ECCENTRICITY":0.00100724,"INCLINATION":62.7889,"RA_OF_ASC_NODE":183.6822,"ARG_OF_PERICENTER":208.511,"MEAN_ANOMALY":151.5441,"EPHEMERIS_TYPE":0,"CLASSIFICATION_TYPE":"U","NORAD_CAT_ID":20663,"ELEMENT_SET_NO":999,"REV_AT_EPOCH":94302,"BSTAR":0.00010825819,"MEAN_MOTION_DOT":1.379e-5,"MEAN_MOTION_DDOT":0},{"OBJECT_NAME":"SL-6 R/B(2)","OBJECT_ID":"1990-055D","EPOCH":"2026-04-23T03:03:00.133632","MEAN_MOTION":15.03783526,"ECCENTRICITY":0.0031987,"INCLINATION":62.7806,"RA_OF_ASC_NODE":102.7084,"ARG_OF_PERICENTER":356.4071,"MEAN_ANOMALY":3.6794,"EPHEMERIS_TYPE":0,"CLASSIFICATION_TYPE":"U","NORAD_CAT_ID":20666,"ELEMENT_SET_NO":999,"REV_AT_EPOCH":94487,"BSTAR":0.0001248441,"MEAN_MOTION_DOT":1.537e-5,"MEAN_MOTION_DDOT":0},{"OBJECT_NAME":"SL-8 R/B","OBJECT_ID":"1990-078B","EPOCH":"2026-04-23T07:26:11.578272","MEAN_MOTION":14.90277476,"ECCENTRICITY":0.03564132,"INCLINATION":82.9051,"RA_OF_ASC_NODE":211.1444,"ARG_OF_PERICENTER":223.244,"MEAN_ANOMALY":134.0299,"EPHEMERIS_TYPE":0,"CLASSIFICATION_TYPE":"U","NORAD_CAT_ID":20775,"ELEMENT_SET_NO":999,"REV_AT_EPOCH":81594,"BSTAR":0.00043633636,"MEAN_MOTION_DOT":0.00014877,"MEAN_MOTION_DDOT":0}]
