SL-8 R/B                
1 19257U 88053B   26113.23955711  .00000143  00000+0  54937-4 0  9993
2 19257  74.0495  30.3445 0020709 202.6801 312.1005 14.38940583983008
COSMOS 1975             
1 19573U 88093A   26112.85251179  .00004449  00000+0  15841-3 0  9995
2 19573  82.5187  73.3216 0012100  25.1621 335.0205 15.28609348 26159
SL-14 R/B               
1 19574U 88093B   26113.13078190  .00000279  00000+0  29252-4 0  9997
2 19574  82.5336   0.3367 0019151 249.7437 262.2081 14.85701349  7614
SL-16 R/B               
1 19650U 88102B   26113.26352684 -.00000193  00000+0 -73332-4 0  9995
2 19650  70.9999  57.7048 0016245 298.2357  61.7125 14.16157712933205
INTERCOSMOS 24          
1 20261U 89080A   26113.28657615  .00000151  00000+0  39549-4 0  9999
2 20261  82.6035  75.3583 1187466 189.2507 168.4845 12.59599807672414
SL-14 R/B               
1 20262U 89080C   26113.12351869  .00000241  00000+0  62793-4 0  9992
2 20262  82.5913 144.6718 1230995  83.2409 290.6889 12.50527488665706
DELTA 1 R/B             
1 20323U 89089B   26113.10945707  .00000155  00000+0  47278-4 0  9992
2 20323  97.0667 313.4708 0068559 343.4519  16.4441 14.50695361902174
ARIANE 40 R/B           
1 20443U 90005H   26113.07890306  .00000152  00000+0  61761-4 0  9995
2 20443  98.3002 172.3980 0011300  74.4464 285.7971 14.39897414899196
DELTA 2 R/B(1)          
1 20453U 90008B   26113.07421883  .00044681  00000+0  43345-3 0  9991
2 20453  35.6015 242.2605 0074984 315.3394  44.1321 15.61641706933060
COSMOS 2058             
1 20465U 90010A   26113.13465530  .00001974  00000+0  11422-3 0  9990
2 20465  82.4698   3.6392 0009449 170.2931 189.8484 15.11683886948952
SL-14 R/B               
1 20466U 90010B   26113.26853721  .00000338  00000+0  37940-4 0  9995
2 20466  82.5038 225.5118 0020613 149.3779 210.8644 14.83609768935095
SL-14 R/B               
1 20511U 90018B   26113.19404885  .00000246  00000+0  27973-4 0  9992
2 20511  82.5236 181.5064 0014960 308.6592  51.3283 14.82182979929176
HST                     
1 20580U 90037B   26113.30249997  .00004696  00000+0  14894-3 0  9993
2 20580  28.4741  95.5035 0001719 251.1381 108.9029 15.30116735780151
SL-16 R/B               
1 20625U 90046B   26113.23296213 -.00000037  00000+0  54985-5 0  9991
2 20625  70.9992 204.3614 0016170 240.7009 119.2498 14.15014872854699
COSMOS 2084             
1 20663U 90055A   26113.21580496  .00001379  00000+0  10826-3 0  9993
2 20663  62.7889 183.6822 0010072 208.5110 151.5441 15.05891404943022
SL-6 R/B(2)             
1 20666U 90055D   26113.12708488  .00001537  00000+0  12484-3 0  9997
2 20666  62.7806 102.7084 0031987 356.4071   3.6794 15.03783526944878
SL-8 R/B                
1 20775U 90078B   26113.30985623  .00014877  00000+0  43634-3 0  9993
2 20775  82.9051 211.1444 0356413 223.2440 134.0299 14.90277476815946
